{
  "version": 1,
  "fetchedAt": "2026-06-16T15:59:31.869Z",
  "source": "celestrak-gp",
  "counts": {
    "station": 25,
    "satellite": 400,
    "debris": 111
  },
  "objects": [
    {
      "id": "58655",
      "name": "BEIDOU-3 M26 (C48)",
      "noradId": 58655,
      "line1": "1 58655U 23207B   26167.02285833 -.00000053  00000+0  00000+0 0  9993",
      "line2": "2 58655  55.7540  62.3289 0003160 319.7508  40.2636  1.86229663 16809",
      "category": "satellite"
    },
    {
      "id": "59598",
      "name": "GSAT0225 (GALILEO 29)",
      "noradId": 59598,
      "line1": "1 59598U 24079A   26166.34075307 -.00000014  00000+0  00000+0 0  9992",
      "line2": "2 59598  55.1186 101.1317 0001559 303.3470 229.1256  1.70473781 13287",
      "category": "satellite"
    },
    {
      "id": "59600",
      "name": "GSAT0227 (GALILEO 30)",
      "noradId": 59600,
      "line1": "1 59600U 24079C   26165.06991355 -.00000010  00000+0  00000+0 0  9990",
      "line2": "2 59600  55.1133 101.1658 0002051  47.7236 312.2495  1.70473921 13317",
      "category": "satellite"
    },
    {
      "id": "61182",
      "name": "GSAT0232 (GALILEO 32)",
      "noradId": 61182,
      "line1": "1 61182U 24167A   26165.42205897  .00000060  00000+0  00000+0 0  9999",
      "line2": "2 61182  55.1857 221.3898 0006268 227.1556 204.5150  1.70474154 10836",
      "category": "satellite"
    },
    {
      "id": "61183",
      "name": "GSAT0226 (GALILEO 31)",
      "noradId": 61183,
      "line1": "1 61183U 24167B   26166.42695424  .00000055  00000+0  00000+0 0  9994",
      "line2": "2 61183  55.1841 221.3693 0002964 227.6875 192.0490  1.70474159 10823",
      "category": "satellite"
    },
    {
      "id": "61186",
      "name": "BEIDOU-3 M25 (C47)",
      "noradId": 61186,
      "line1": "1 61186U 24168B   26166.91584368 -.00000070  00000+0  00000+0 0  9994",
      "line2": "2 61186  54.4746 302.2864 0002971 300.8355 104.7824  1.86229777 11762",
      "category": "satellite"
    },
    {
      "id": "61187",
      "name": "BEIDOU-3 M27 (C49)",
      "noradId": 61187,
      "line1": "1 61187U 24168C   26166.64921141 -.00000070  00000+0  00000+0 0  9999",
      "line2": "2 61187  54.4702 302.2787 0001579  51.2024 310.6804  1.86229845  9233",
      "category": "satellite"
    },
    {
      "id": "62339",
      "name": "GPS BIII-7  (PRN 01)",
      "noradId": 62339,
      "line1": "1 62339U 24242A   26164.36763877 -.00000075  00000+0  00000+0 0  9994",
      "line2": "2 62339  54.8503 334.3363 0017188   3.9293   7.0837  2.00571230 11182",
      "category": "satellite"
    },
    {
      "id": "62876",
      "name": "QZS-6 (QZSS/PRN 200)",
      "noradId": 62876,
      "line1": "1 62876U 25023A   26167.02083937 -.00000233  00000+0  00000+0 0  9992",
      "line2": "2 62876   0.0510  69.0790 0001702  21.7291 271.5138  1.00270901  4933",
      "category": "satellite"
    },
    {
      "id": "63130",
      "name": "COSMOS 2584 (704K)",
      "noradId": 63130,
      "line1": "1 63130U 25042A   26159.22437978 -.00000015  00000+0  00000+0 0  9996",
      "line2": "2 63130  65.0792  73.1067 0005828 228.4476 131.5246  2.13103875  9858",
      "category": "satellite"
    },
    {
      "id": "64202",
      "name": "GPS BIII-8  (PRN 21)",
      "noradId": 64202,
      "line1": "1 64202U 25116A   26163.38956388 -.00000065  00000+0  00000+0 0  9997",
      "line2": "2 64202  55.2312  31.3239 0008563 338.8161 228.7168  2.00576015  7778",
      "category": "satellite"
    },
    {
      "id": "65590",
      "name": "COSMOS 2596 (708K)",
      "noradId": 65590,
      "line1": "1 65590U 25206B   26167.05091027 -.00000056  00000+0  00000+0 0  9996",
      "line2": "2 65590  64.6354 315.0247 0010997 311.9042  48.7048  2.13100526  5896",
      "category": "satellite"
    },
    {
      "id": "67160",
      "name": "GSAT0233 (GALILEO 33)",
      "noradId": 67160,
      "line1": "1 67160U 25302A   26166.92920141 -.00000014  00000+0  00000+0 0  9995",
      "line2": "2 67160  54.3356 102.1668 0000839 227.0567 237.4220  1.70473864  3105",
      "category": "satellite"
    },
    {
      "id": "67162",
      "name": "GSAT0234 (GALILEO 34)",
      "noradId": 67162,
      "line1": "1 67162U 25302C   26165.58025771 -.00000011  00000+0  00000+0 0  9990",
      "line2": "2 67162  54.3363 102.2045 0003043 308.4769 228.2268  1.70473883  3137",
      "category": "satellite"
    },
    {
      "id": "67588",
      "name": "GPS BIII-9  (PRN 20)",
      "noradId": 67588,
      "line1": "1 67588U 26017A   26164.20879687 -.00000028  00000+0  00000+0 0  9995",
      "line2": "2 67588  55.0859  88.9150 0022147 258.0590 101.6773  2.00571123431536",
      "category": "satellite"
    },
    {
      "id": "68791",
      "name": "GPS BIII-10 (PRN 13)",
      "noradId": 68791,
      "line1": "1 68791U 26087A   26158.43909353  .00000057  00000+0  00000+0 0  9992",
      "line2": "2 68791  54.9638 208.1735 0020931 107.2972 251.8874  2.00569573   638",
      "category": "satellite"
    }
  ]
}